{
  "type": "FeatureCollection",
  "features": [
    {
      "type": "Feature",
      "properties": {
        "norad_id": 36540,
        "name": "COSMOS 2251 DEB",
        "group": "cosmos-2251-debris",
        "lat": 21.261699613496823,
        "lon": -23.98041279354283,
        "alt_km": 694.5285056147432,
        "timestamp": "2025-12-22T05:49:03.898658+00:00",
        "meta_object_name": "COSMOS 2251 DEB",
        "meta_object_id": "1993-036BDA",
        "meta_epoch": "2025-12-21T17:34:21.856224",
        "meta_mean_motion": 14.58559476,
        "meta_eccentricity": 0.0014709,
        "meta_inclination": 74.0275,
        "meta_ra_of_asc_node": 163.3898,
        "meta_arg_of_pericenter": 233.2895,
        "meta_mean_anomaly": 126.6919,
        "meta_ephemeris_type": 0,
        "meta_classification_type": "U",
        "meta_norad_cat_id": 36540,
        "meta_element_set_no": 999,
        "meta_rev_at_epoch": 86141,
        "meta_bstar": 0.00089106,
        "meta_mean_motion_dot": 4.123e-05,
        "meta_mean_motion_ddot": 0,
        "tle_line1": "1 36540U 93036BDA 25355.73219741  .00004123  00000+0  89106-3 0  9999",
        "tle_line2": "2 36540  74.0275 163.3898 0014709 233.2895 126.6919 14.58559476861414"
      },
      "geometry": {
        "type": "Point",
        "coordinates": [
          -23.98041279354283,
          21.261699613496823
        ]
      }
    },
    {
      "type": "Feature",
      "properties": {
        "norad_id": 36550,
        "name": "COSMOS 2251 DEB",
        "group": "cosmos-2251-debris",
        "lat": 7.788859635884202,
        "lon": 177.79689028642662,
        "alt_km": 847.859901673788,
        "timestamp": "2025-12-22T05:49:03.898669+00:00",
        "meta_object_name": "COSMOS 2251 DEB",
        "meta_object_id": "1993-036BDL",
        "meta_epoch": "2025-12-18T21:01:50.103840",
        "meta_mean_motion": 14.27217133,
        "meta_eccentricity": 0.00780997,
        "meta_inclination": 74.0439,
        "meta_ra_of_asc_node": 181.6412,
        "meta_arg_of_pericenter": 230.9486,
        "meta_mean_anomaly": 128.4696,
        "meta_ephemeris_type": 0,
        "meta_classification_type": "U",
        "meta_norad_cat_id": 36550,
        "meta_element_set_no": 999,
        "meta_rev_at_epoch": 84683,
        "meta_bstar": 0.00048644345,
        "meta_mean_motion_dot": 1.202e-05,
        "meta_mean_motion_ddot": 0,
        "tle_line1": "1 36550U 93036BDL 25352.87627435  .00001202  00000+0  48644-3 0  9992",
        "tle_line2": "2 36550  74.0439 181.6412 0078099 230.9486 128.4696 14.27217133846832"
      },
      "geometry": {
        "type": "Point",
        "coordinates": [
          177.79689028642662,
          7.788859635884202
        ]
      }
    },
    {
      "type": "Feature",
      "properties": {
        "norad_id": 36551,
        "name": "COSMOS 2251 DEB",
        "group": "cosmos-2251-debris",
        "lat": 52.20331406545761,
        "lon": 153.2470962604895,
        "alt_km": 588.3904013582915,
        "timestamp": "2025-12-22T05:49:03.898679+00:00",
        "meta_object_name": "COSMOS 2251 DEB",
        "meta_object_id": "1993-036BDM",
        "meta_epoch": "2025-12-20T18:06:50.617728",
        "meta_mean_motion": 15.02792529,
        "meta_eccentricity": 0.00510944,
        "meta_inclination": 73.8867,
        "meta_ra_of_asc_node": 358.1943,
        "meta_arg_of_pericenter": 305.9203,
        "meta_mean_anomaly": 53.7248,
        "meta_ephemeris_type": 0,
        "meta_classification_type": "U",
        "meta_norad_cat_id": 36551,
        "meta_element_set_no": 999,
        "meta_rev_at_epoch": 67052,
        "meta_bstar": 0.00081561541,
        "meta_mean_motion_dot": 0.00011204,
        "meta_mean_motion_ddot": 0,
        "tle_line1": "1 36551U 93036BDM 25354.75475252  .00011204  00000+0  81562-3 0  9999",
        "tle_line2": "2 36551  73.8867 358.1943 0051094 305.9203  53.7248 15.02792529670526"
      },
      "geometry": {
        "type": "Point",
        "coordinates": [
          153.2470962604895,
          52.20331406545761
        ]
      }
    },
    {
      "type": "Feature",
      "properties": {
        "norad_id": 36557,
        "name": "COSMOS 2251 DEB",
        "group": "cosmos-2251-debris",
        "lat": -1.4256050517734162,
        "lon": 107.10833367062413,
        "alt_km": 639.0900130498212,
        "timestamp": "2025-12-22T05:49:03.898689+00:00",
        "meta_object_name": "COSMOS 2251 DEB",
        "meta_object_id": "1993-036BDT",
        "meta_epoch": "2025-12-16T15:02:26.530080",
        "meta_mean_motion": 14.78433531,
        "meta_eccentricity": 0.00216791,
        "meta_inclination": 73.9792,
        "meta_ra_of_asc_node": 118.5873,
        "meta_arg_of_pericenter": 270.9403,
        "meta_mean_anomaly": 88.9288,
        "meta_ephemeris_type": 0,
        "meta_classification_type": "U",
        "meta_norad_cat_id": 36557,
        "meta_element_set_no": 999,
        "meta_rev_at_epoch": 33954,
        "meta_bstar": 0.0025552637,
        "meta_mean_motion_dot": 0.00018721,
        "meta_mean_motion_ddot": 0,
        "tle_line1": "1 36557U 93036BDT 25350.62669595  .00018721  00000+0  25553-2 0  9990",
        "tle_line2": "2 36557  73.9792 118.5873 0021679 270.9403  88.9288 14.78433531339544"
      },
      "geometry": {
        "type": "Point",
        "coordinates": [
          107.10833367062413,
          -1.4256050517734162
        ]
      }
    },
    {
      "type": "Feature",
      "properties": {
        "norad_id": 36558,
        "name": "COSMOS 2251 DEB",
        "group": "cosmos-2251-debris",
        "lat": -46.21961209778713,
        "lon": -26.07565126040204,
        "alt_km": 705.496715308579,
        "timestamp": "2025-12-22T05:49:03.898699+00:00",
        "meta_object_name": "COSMOS 2251 DEB",
        "meta_object_id": "1993-036BDU",
        "meta_epoch": "2025-12-21T08:58:26.792544",
        "meta_mean_motion": 14.55416575,
        "meta_eccentricity": 0.00126133,
        "meta_inclination": 74.0422,
        "meta_ra_of_asc_node": 138.1955,
        "meta_arg_of_pericenter": 226.6468,
        "meta_mean_anomaly": 133.3645,
        "meta_ephemeris_type": 0,
        "meta_classification_type": "U",
        "meta_norad_cat_id": 36558,
        "meta_element_set_no": 999,
        "meta_rev_at_epoch": 85394,
        "meta_bstar": 0.00068051983,
        "meta_mean_motion_dot": 2.933e-05,
        "meta_mean_motion_ddot": 0,
        "tle_line1": "1 36558U 93036BDU 25355.37392121  .00002933  00000+0  68052-3 0  9996",
        "tle_line2": "2 36558  74.0422 138.1955 0012613 226.6468 133.3645 14.55416575853944"
      },
      "geometry": {
        "type": "Point",
        "coordinates": [
          -26.07565126040204,
          -46.21961209778713
        ]
      }
    },
    {
      "type": "Feature",
      "properties": {
        "norad_id": 36559,
        "name": "COSMOS 2251 DEB",
        "group": "cosmos-2251-debris",
        "lat": 11.5202625039227,
        "lon": 170.25338618759292,
        "alt_km": 1063.0665950827242,
        "timestamp": "2025-12-22T05:49:03.898710+00:00",
        "meta_object_name": "COSMOS 2251 DEB",
        "meta_object_id": "1993-036BDV",
        "meta_epoch": "2025-12-16T01:02:38.774976",
        "meta_mean_motion": 13.95226172,
        "meta_eccentricity": 0.0260446,
        "meta_inclination": 74.1323,
        "meta_ra_of_asc_node": 4.1653,
        "meta_arg_of_pericenter": 36.0043,
        "meta_mean_anomaly": 325.8321,
        "meta_ephemeris_type": 0,
        "meta_classification_type": "U",
        "meta_norad_cat_id": 36559,
        "meta_element_set_no": 999,
        "meta_rev_at_epoch": 81140,
        "meta_bstar": 0.0020581095,
        "meta_mean_motion_dot": 3.672e-05,
        "meta_mean_motion_ddot": 0,
        "tle_line1": "1 36559U 93036BDV 25350.04350434  .00003672  00000+0  20581-2 0  9992",
        "tle_line2": "2 36559  74.1323   4.1653 0260446  36.0043 325.8321 13.95226172811403"
      },
      "geometry": {
        "type": "Point",
        "coordinates": [
          170.25338618759292,
          11.5202625039227
        ]
      }
    },
    {
      "type": "Feature",
      "properties": {
        "norad_id": 36614,
        "name": "COSMOS 2251 DEB",
        "group": "cosmos-2251-debris",
        "lat": 50.83442050953575,
        "lon": 177.02401594658235,
        "alt_km": 698.0432520993345,
        "timestamp": "2025-12-22T05:49:03.898720+00:00",
        "meta_object_name": "COSMOS 2251 DEB",
        "meta_object_id": "1993-036BEC",
        "meta_epoch": "2025-12-20T17:24:05.102784",
        "meta_mean_motion": 14.60353691,
        "meta_eccentricity": 0.0015826,
        "meta_inclination": 74.0208,
        "meta_ra_of_asc_node": 159.3271,
        "meta_arg_of_pericenter": 229.1193,
        "meta_mean_anomaly": 130.8602,
        "meta_ephemeris_type": 0,
        "meta_classification_type": "U",
        "meta_norad_cat_id": 36614,
        "meta_element_set_no": 999,
        "meta_rev_at_epoch": 65729,
        "meta_bstar": 0.00087623932,
        "meta_mean_motion_dot": 4.218e-05,
        "meta_mean_motion_ddot": 0,
        "tle_line1": "1 36614U 93036BEC 25354.72505906  .00004218  00000+0  87624-3 0  9998",
        "tle_line2": "2 36614  74.0208 159.3271 0015826 229.1193 130.8602 14.60353691657297"
      },
      "geometry": {
        "type": "Point",
        "coordinates": [
          177.02401594658235,
          50.83442050953575
        ]
      }
    }
  ]
}